{"type": "FeatureCollection", "features": [ {"type": "Feature", "properties": {"norad_id": 66999, "name": "2025-292G", "group": "last-30-days", "lat": -75.90736719100634, "lon": -145.21637030250608, "alt_km": 549.1685967292369, "timestamp": "2025-12-20T16:47:35.026283+00:00", "meta": {"OBJECT_NAME": "2025-292G", "OBJECT_ID": "2025-292G", "EPOCH": "2025-12-20T10:51:42.365088", "MEAN_MOTION": 15.04962588, "ECCENTRICITY": 0.0014249, "INCLINATION": 97.6565, "RA_OF_ASC_NODE": 66.9407, "ARG_OF_PERICENTER": 251.1221, "MEAN_ANOMALY": 108.8461, "EPHEMERIS_TYPE": 0, "CLASSIFICATION_TYPE": "U", "NORAD_CAT_ID": 66999, "ELEMENT_SET_NO": 999, "REV_AT_EPOCH": 155, "BSTAR": 0.00023056, "MEAN_MOTION_DOT": 3.212e-05, "MEAN_MOTION_DDOT": 0}, "tle": {"line1": "1 66999U 25292G   25354.45257367  .00003212  00000+0  23056-3 0  9993", "line2": "2 66999  97.6565  66.9407 0014249 251.1221 108.8461 15.04962588  1552"}}, "geometry": {"type": "Point", "coordinates": [-145.21637030250608, -75.90736719100634]}}, {"type": "Feature", "properties": {"norad_id": 67000, "name": "2025-292H", "group": "last-30-days", "lat": -76.11215246593201, "lon": -145.78108147602225, "alt_km": 549.1602274357156, "timestamp": "2025-12-20T16:47:35.026293+00:00", "meta": {"OBJECT_NAME": "2025-292H", "OBJECT_ID": "2025-292H", "EPOCH": "2025-12-20T09:15:54.180000", "MEAN_MOTION": 15.04980041, "ECCENTRICITY": 0.0014201, "INCLINATION": 97.6578, "RA_OF_ASC_NODE": 66.8764, "ARG_OF_PERICENTER": 250.9973, "MEAN_ANOMALY": 108.9714, "EPHEMERIS_TYPE": 0, "CLASSIFICATION_TYPE": "U", "NORAD_CAT_ID": 67000, "ELEMENT_SET_NO": 999, "REV_AT_EPOCH": 141, "BSTAR": 0.00030426, "MEAN_MOTION_DOT": 4.262e-05, "MEAN_MOTION_DDOT": 0}, "tle": {"line1": "1 67000U 25292H   25354.38604375  .00004262  00000+0  30426-3 0  9999", "line2": "2 67000  97.6578  66.8764 0014201 250.9973 108.9714 15.04980041  1415"}}, "geometry": {"type": "Point", "coordinates": [-145.78108147602225, -76.11215246593201]}}, {"type": "Feature", "properties": {"norad_id": 67001, "name": "2025-292J", "group": "last-30-days", "lat": -55.272336835244346, "lon": -124.01442143897636, "alt_km": 550.4865025829822, "timestamp": "2025-12-20T16:47:35.026306+00:00", "meta": {"OBJECT_NAME": "2025-292J", "OBJECT_ID": "2025-292J", "EPOCH": "2025-12-20T10:57:27.520128", "MEAN_MOTION": 15.04379021, "ECCENTRICITY": 0.0014431, "INCLINATION": 97.6558, "RA_OF_ASC_NODE": 66.9346, "ARG_OF_PERICENTER": 239.7846, "MEAN_ANOMALY": 120.1952, "EPHEMERIS_TYPE": 0, "CLASSIFICATION_TYPE": "U", "NORAD_CAT_ID": 67001, "ELEMENT_SET_NO": 999, "REV_AT_EPOCH": 155, "BSTAR": 0.000256, "MEAN_MOTION_DOT": 3.518e-05, "MEAN_MOTION_DDOT": 0}, "tle": {"line1": "1 67001U 25292J   25354.45656852  .00003518  00000+0  25600-3 0  9996", "line2": "2 67001  97.6558  66.9346 0014431 239.7846 120.1952 15.04379021  1555"}}, "geometry": {"type": "Point", "coordinates": [-124.01442143897636, -55.272336835244346]}}, {"type": "Feature", "properties": {"norad_id": 67002, "name": "ZK-1A R/B", "group": "last-30-days", "lat": 7.455793792407807, "lon": 67.1110926916891, "alt_km": 274.8441153821641, "timestamp": "2025-12-20T16:47:35.026317+00:00", "meta": {"OBJECT_NAME": "ZK-1A R/B", "OBJECT_ID": "2025-292K", "EPOCH": "2025-12-20T04:25:22.179936", "MEAN_MOTION": 15.56928991, "ECCENTRICITY": 0.0211554, "INCLINATION": 97.7223, "RA_OF_ASC_NODE": 67.5703, "ARG_OF_PERICENTER": 338.5444, "MEAN_ANOMALY": 20.7038, "EPHEMERIS_TYPE": 0, "CLASSIFICATION_TYPE": "U", "NORAD_CAT_ID": 67002, "ELEMENT_SET_NO": 999, "REV_AT_EPOCH": 155, "BSTAR": 0.00062924, "MEAN_MOTION_DOT": 0.00131744, "MEAN_MOTION_DDOT": 6.798e-06}, "tle": {"line1": "1 67002U 25292K   25354.18428449  .00131744  67980-5  62924-3 0  9995", "line2": "2 67002  97.7223  67.5703 0211554 338.5444  20.7038 15.56928991  1550"}}, "geometry": {"type": "Point", "coordinates": [67.1110926916891, 7.455793792407807]}}, {"type": "Feature", "properties": {"norad_id": 67003, "name": "STARLINK-35660", "group": "last-30-days", "lat": -67.8118794098281, "lon": -176.0121237124265, "alt_km": 303.7151971381254, "timestamp": "2025-12-20T16:47:35.026329+00:00", "meta": {"OBJECT_NAME": "STARLINK-35660", "OBJECT_ID": "2025-293A", "EPOCH": "2025-12-20T12:00:02.000160", "MEAN_MOTION": 15.91423633, "ECCENTRICITY": 0.0003787, "INCLINATION": 69.9935, "RA_OF_ASC_NODE": 301.265, "ARG_OF_PERICENTER": 269.1985, "MEAN_ANOMALY": 287.5004, "EPHEMERIS_TYPE": 0, "CLASSIFICATION_TYPE": "U", "NORAD_CAT_ID": 67003, "ELEMENT_SET_NO": 999, "REV_AT_EPOCH": 142, "BSTAR": -0.0036539, "MEAN_MOTION_DOT": -0.01175912, "MEAN_MOTION_DDOT": 0.00040533}, "tle": {"line1": "1 67003U 25293A   25354.50002315 -.01175912  40533-3 -36539-2 0  9996", "line2": "2 67003  69.9935 301.2650 0003787 269.1985 287.5004 15.91423633  1421"}}, "geometry": {"type": "Point", "coordinates": [-176.0121237124265, -67.8118794098281]}}, {"type": "Feature", "properties": {"norad_id": 67004, "name": "STARLINK-35913", "group": "last-30-days", "lat": -68.63264647273338, "lon": -170.67585121367782, "alt_km": 303.6002472456357, "timestamp": "2025-12-20T16:47:35.026340+00:00", "meta": {"OBJECT_NAME": "STARLINK-35913", "OBJECT_ID": "2025-293B", "EPOCH": "2025-12-20T12:00:02.000160", "MEAN_MOTION": 15.91468126, "ECCENTRICITY": 0.0003773, "INCLINATION": 69.9936, "RA_OF_ASC_NODE": 301.2625, "ARG_OF_PERICENTER": 269.4023, "MEAN_ANOMALY": 289.4118, "EPHEMERIS_TYPE": 0, "CLASSIFICATION_TYPE": "U", "NORAD_CAT_ID": 67004, "ELEMENT_SET_NO": 999, "REV_AT_EPOCH": 142, "BSTAR": -0.003657, "MEAN_MOTION_DOT": -0.01179554, "MEAN_MOTION_DDOT": 0.00040783}, "tle": {"line1": "1 67004U 25293B   25354.50002315 -.01179554  40783-3 -36570-2 0  9995", "line2": "2 67004  69.9936 301.2625 0003773 269.4023 289.4118 15.91468126  1429"}}, "geometry": {"type": "Point", "coordinates": [-170.67585121367782, -68.63264647273338]}}, {"type": "Feature", "properties": {"norad_id": 67005, "name": "STARLINK-36148", "group": "last-30-days", "lat": -69.30628240003051, "lon": -164.614726137201, "alt_km": 303.45453735631054, "timestamp": "2025-12-20T16:47:35.026350+00:00", "meta": {"OBJECT_NAME": "STARLINK-36148", "OBJECT_ID": "2025-293C", "EPOCH": "2025-12-20T12:00:02.000160", "MEAN_MOTION": 15.91514881, "ECCENTRICITY": 0.0003804, "INCLINATION": 69.9938, "RA_OF_ASC_NODE": 301.2601, "ARG_OF_PERICENTER": 270.6545, "MEAN_ANOMALY": 290.408, "EPHEMERIS_TYPE": 0, "CLASSIFICATION_TYPE": "U", "NORAD_CAT_ID": 67005, "ELEMENT_SET_NO": 999, "REV_AT_EPOCH": 142, "BSTAR": -0.003662, "MEAN_MOTION_DOT": -0.01183975, "MEAN_MOTION_DDOT": 0.00041085}, "tle": {"line1": "1 67005U 25293C   25354.50002315 -.01183975  41085-3 -36620-2 0  9990", "line2": "2 67005  69.9938 301.2601 0003804 270.6545 290.4080 15.91514881  1424"}}, "geometry": {"type": "Point", "coordinates": [-164.614726137201, -69.30628240003051]}}, {"type": "Feature", "properties": {"norad_id": 67006, "name": "STARLINK-36156", "group": "last-30-days", "lat": -69.9800127539661, "lon": -149.21858271727913, "alt_km": 303.1210692395107, "timestamp": "2025-12-20T16:47:35.026360+00:00", "meta": {"OBJECT_NAME": "STARLINK-36156", "OBJECT_ID": "2025-293D", "EPOCH": "2025-12-20T12:00:02.000160", "MEAN_MOTION": 15.91627795, "ECCENTRICITY": 0.0003858, "INCLINATION": 69.9937, "RA_OF_ASC_NODE": 301.2533, "ARG_OF_PERICENTER": 270.4602, "MEAN_ANOMALY": 295.9185, "EPHEMERIS_TYPE": 0, "CLASSIFICATION_TYPE": "U", "NORAD_CAT_ID": 67006, "ELEMENT_SET_NO": 999, "REV_AT_EPOCH": 142, "BSTAR": -0.0037141, "MEAN_MOTION_DOT": -0.01207606, "MEAN_MOTION_DDOT": 0.00042659}, "tle": {"line1": "1 67006U 25293D   25354.50002315 -.01207606  42659-3 -37141-2 0  9996", "line2": "2 67006  69.9937 301.2533 0003858 270.4602 295.9185 15.91627795  1424"}}, "geometry": {"type": "Point", "coordinates": [-149.21858271727913, -69.9800127539661]}}, {"type": "Feature", "properties": {"norad_id": 67007, "name": "STARLINK-36123", "group": "last-30-days", "lat": -69.84208576406184, "lon": -156.30736342421957, "alt_km": 303.2618919476172, "timestamp": "2025-12-20T16:47:35.026370+00:00", "meta": {"OBJECT_NAME": "STARLINK-36123", "OBJECT_ID": "2025-293E", "EPOCH": "2025-12-20T12:00:02.000160", "MEAN_MOTION": 15.91577054, "ECCENTRICITY": 0.0003845, "INCLINATION": 69.9934, "RA_OF_ASC_NODE": 301.2562, "ARG_OF_PERICENTER": 270.3274, "MEAN_ANOMALY": 293.644, "EPHEMERIS_TYPE": 0, "CLASSIFICATION_TYPE": "U", "NORAD_CAT_ID": 67007, "ELEMENT_SET_NO": 999, "REV_AT_EPOCH": 142, "BSTAR": -0.0036925, "MEAN_MOTION_DOT": -0.0119756, "MEAN_MOTION_DDOT": 0.00041985}, "tle": {"line1": "1 67007U 25293E   25354.50002315 -.01197560  41985-3 -36925-2 0  9994", "line2": "2 67007  69.9934 301.2562 0003845 270.3274 293.6440 15.91577054  1425"}}, "geometry": {"type": "Point", "coordinates": [-156.30736342421957, -69.84208576406184]}}, {"type": "Feature", "properties": {"norad_id": 67008, "name": "STARLINK-36163", "group": "last-30-days", "lat": -69.7278922338463, "lon": -139.89613088780172, "alt_km": 302.98050038873225, "timestamp": "2025-12-20T16:47:35.026380+00:00", "meta": {"OBJECT_NAME": "STARLINK-36163", "OBJECT_ID": "2025-293F", "EPOCH": "2025-12-20T12:00:02.000160", "MEAN_MOTION": 15.91696753, "ECCENTRICITY": 0.0003849, "INCLINATION": 69.9938, "RA_OF_ASC_NODE": 301.2496, "ARG_OF_PERICENTER": 269.5094, "MEAN_ANOMALY": 300.0483, "EPHEMERIS_TYPE": 0, "CLASSIFICATION_TYPE": "U", "NORAD_CAT_ID": 67008, "ELEMENT_SET_NO": 999, "REV_AT_EPOCH": 142, "BSTAR": -0.0038191, "MEAN_MOTION_DOT": -0.01245793, "MEAN_MOTION_DDOT": 0.00045212}, "tle": {"line1": "1 67008U 25293F   25354.50002315 -.01245793  45212-3 -38191-2 0  9991", "line2": "2 67008  69.9938 301.2496 0003849 269.5094 300.0483 15.91696753  1428"}}, "geometry": {"type": "Point", "coordinates": [-139.89613088780172, -69.7278922338463]}}]}